[{"OBJECT_NAME":"STARLINK-35735","OBJECT_ID":"2025-244AB","EPOCH":"2026-03-09T18:19:54.439392","MEAN_MOTION":15.30203353,"ECCENTRICITY":9.462e-5,"INCLINATION":53.1602,"RA_OF_ASC_NODE":229.3636,"ARG_OF_PERICENTER":85.3174,"MEAN_ANOMALY":274.7935,"EPHEMERIS_TYPE":0,"CLASSIFICATION_TYPE":"U","NORAD_CAT_ID":66231,"ELEMENT_SET_NO":999,"REV_AT_EPOCH":2167,"BSTAR":0.00066180114,"MEAN_MOTION_DOT":0.00019294,"MEAN_MOTION_DDOT":0},{"OBJECT_NAME":"NOAA 17 DEB","OBJECT_ID":"2002-032DK","EPOCH":"2026-03-06T06:53:22.349472","MEAN_MOTION":15.29547844,"ECCENTRICITY":0.00135803,"INCLINATION":98.6735,"RA_OF_ASC_NODE":77.6727,"ARG_OF_PERICENTER":131.2945,"MEAN_ANOMALY":228.9463,"EPHEMERIS_TYPE":0,"CLASSIFICATION_TYPE":"U","NORAD_CAT_ID":49481,"ELEMENT_SET_NO":999,"REV_AT_EPOCH":24998,"BSTAR":0.011623019,"MEAN_MOTION_DOT":0.00349096,"MEAN_MOTION_DDOT":0}]
